IRIDIUM 8 [+]           
1 24792U 97020A   16294.30278006  .00000164  00000-0  51624-4 0  9993
2 24792  86.3969  58.9713 0002114  97.3106 262.8330 14.34217891 18816
IRIDIUM 7 [+]           
1 24793U 97020B   16294.50574007  .00000144  00000-0  44341-4 0  9992
2 24793  86.3974  59.1561 0002077  96.9017 263.2415 14.34216329 18848
IRIDIUM 6 [+]           
1 24794U 97020C   16294.42952786  .00000152  00000-0  47117-4 0  9991
2 24794  86.3972  59.1242 0002115  95.0879 265.0558 14.34217561 18838
IRIDIUM 5 [+]           
1 24795U 97020D   16294.28380229  .00000176  00000-0  55744-4 0  9994
2 24795  86.3967  59.2019 0001998  93.7737 266.3688 14.34223836 18887
IRIDIUM 4 [-]           
1 24796U 97020E   16294.50051241  .00000171  00000-0  53167-4 0  9991
2 24796  86.3967  58.2041 0002162  95.3690 311.8967 14.35112421 18921
IRIDIUM 914 [-]         
1 24836U 97030A   16294.38655173  .00000158  00000-0  44943-4 0  9994
2 24836  86.3923  75.6560 0002781 128.0941 232.0508 14.38713846 14468
IRIDIUM 12 [+]          
1 24837U 97030B   16294.51607536 -.00000005  00000-0 -86872-5 0  9991
2 24837  86.3927  90.2973 0001908  89.6544 306.3871 14.34216097 12597
IRIDIUM 10 [+]          
1 24839U 97030D   16294.50321047 -.00000015  00000-0 -12363-4 0  9996
2 24839  86.3927  90.2838 0001929  90.5868 304.5551 14.34214901 12601
IRIDIUM 13 [+]          
1 24840U 97030E   16294.51541184 -.00000009  00000-0 -10311-4 0  9999
2 24840  86.3929  90.4137 0001760  90.0923 270.0474 14.34214560 12599
IRIDIUM 16 [-]          
1 24841U 97030F   16294.47053686  .00000139  00000-0  40356-4 0  9994
2 24841  86.4007  90.4203 0002772  38.1762 321.9631 14.36664970 13161
IRIDIUM 911 [-]         
1 24842U 97030G   16294.49861895  .00000169  00000-0  42544-4 0  9990
2 24842  86.4434  91.3354 0015200 159.3153 200.8667 14.44899644 18338
IRIDIUM 15 [+]          
1 24869U 97034A   16294.55681231 -.00000016  00000-0 -12725-4 0  9995
2 24869  86.3930 122.3059 0002121  79.4340 280.7094 14.34217758  9567
IRIDIUM 17 [-]          
1 24870U 97034B   16294.48914240  .00000130  00000-0  38256-4 0  9990
2 24870  86.3933 120.6384 0000530  41.9021 318.2216 14.35710495  9780
IRIDIUM 920 [-]         
1 24871U 97034C   16294.33755967  .00000144  00000-0  39657-4 0  9995
2 24871  86.3939 107.4581 0013444  55.7106 304.5364 14.39432267 11848
IRIDIUM 18 [+]          
1 24872U 97034D   16294.53778418 -.00000021  00000-0 -14637-4 0  9991
2 24872  86.3937 122.2714 0002004  81.3862 278.7561 14.34217758  9562
IRIDIUM 921 [-]         
1 24873U 97034E   16294.38881413  .00000907  00000-0  52399-4 0  9993
2 24873  86.3975 179.2714 0007812 160.8871 199.2661 15.10863710 51882
IRIDIUM 26 [-]          
1 24903U 97043A   16294.56109507  .00000111  00000-0  31862-4 0  9993
2 24903  86.3995 355.1418 0002253  89.9237  45.7454 14.35216028  3607
IRIDIUM 25 [+]          
1 24904U 97043B   16294.20700688  .00000197  00000-0  63202-4 0  9999
2 24904  86.3989 355.7771 0002312  92.4176 267.7284 14.34222147  3432
IRIDIUM 46 [+]          
1 24905U 97043C   16294.49876872  .00000194  00000-0  62163-4 0  9992
2 24905  86.3998 356.1876 0002342  94.0282 266.1182 14.34222342  3474
IRIDIUM 23 [+]          
1 24906U 97043D   16294.51774512  .00000191  00000-0  61229-4 0  9993
2 24906  86.4002 355.6594 0002422  94.5925  36.1492 14.34220668  3480
IRIDIUM 22 [+]          
1 24907U 97043E   16294.53682339  .00000195  00000-0  62733-4 0  9996
2 24907  86.4000 356.2802 0002301  95.0164 265.1294 14.34221583  3486
DUMMY MASS 1 [-]        
1 24925U 97048A   16293.70587387  .00000115  00000-0  10203-4 0  9993
2 24925  86.3366 154.3055 0007694 154.8401 205.3200 14.85102856 35895
DUMMY MASS 2 [-]        
1 24926U 97048B   16293.70684983  .00000115  00000-0  10199-4 0  9998
2 24926  86.3367 155.3805 0008177 163.3198 196.8296 14.84871232 35503
IRIDIUM 29 [-]          
1 24944U 97051A   16294.17497843  .00000099  00000-0  28180-4 0  9991
2 24944  86.4004  27.2797 0002140 102.5302 257.6134 14.34604776    12
IRIDIUM 32 [+]          
1 24945U 97051B   16294.21690481  .00000235  00000-0  76961-4 0  9992
2 24945  86.4002  27.4282 0002268  97.7978 262.3475 14.34223407    27
IRIDIUM 33 [-]          
1 24946U 97051C   16294.41469214  .00000119  00000-0  35932-4 0  9997
2 24946  86.3919  27.0981 0006165 315.1789  44.8908 14.33517488999680
IRIDIUM 28 [-]          
1 24948U 97051E   16294.27365705  .00000126  00000-0  37052-4 0  9996
2 24948  86.4008  26.6080 0002112  84.8138 275.3300 14.35509866   169
IRIDIUM 30 [+]          
1 24949U 97051F   16294.41983198  .00000037  00000-0  62606-5 0  9990
2 24949  86.4023  27.4403 0002024  83.8297 276.3129 14.34221116    36
IRIDIUM 31 [+]          
1 24950U 97051G   16294.34371606  .00000263  00000-0  86863-4 0  9990
2 24950  86.4002  27.4667 0002124 100.5799 259.5636 14.34218645    31
IRIDIUM 19 [+]          
1 24965U 97056A   16294.32816935  .00000167  00000-0  52511-4 0  9994
2 24965  86.3970  58.9704 0002098  96.8708 263.2726 14.34216670998177
IRIDIUM 35 [+]          
1 24966U 97056B   16294.41062496  .00000164  00000-0  51662-4 0  9993
2 24966  86.3969  58.9317 0002117  96.8599 263.2837 14.34217874998165
IRIDIUM 36 [-]          
1 24967U 97056C   16294.42667256  .00000138  00000-0  41099-4 0  9994
2 24967  86.3982  58.1710 0002024  96.5063 263.6364 14.35560990998463
IRIDIUM 37 [+]          
1 24968U 97056D   16294.38525711  .00000163  00000-0  51011-4 0  9992
2 24968  86.3972  59.1218 0002097  97.3328 262.8106 14.34217383998166
IRIDIUM 34 [+]          
1 24969U 97056E   16294.33450359  .00000171  00000-0  53975-4 0  9993
2 24969  86.3972  59.0795 0002064  97.0232 263.1199 14.34219404998152
IRIDIUM 43 [+]          
1 25039U 97069A   16294.53143432 -.00000123  00000-0 -50951-4 0  9999
2 25039  86.3932 122.2032 0001775  86.6106 273.5292 14.34216569991966
IRIDIUM 41 [+]          
1 25040U 97069B   16294.52509472 -.00000015  00000-0 -12589-4 0  9995
2 25040  86.3937 122.1610 0002047  80.3368 279.8059 14.34217602991967
IRIDIUM 40 [+]          
1 25041U 97069C   16294.48084644 -.00000134  00000-0 -54939-4 0  9997
2 25041  86.3929 122.4047 0001223 113.3823 246.7501 14.34213603991977
IRIDIUM 39 [B]          
1 25042U 97069D   16294.46575564  .00000181  00000-0  44884-4 0  9990
2 25042  86.3892 121.5071 0020164  35.4141 324.8396 14.46097314992070
IRIDIUM 38 [-]          
1 25043U 97069E   16294.51617926  .00000142  00000-0  42256-4 0  9994
2 25043  86.3931 119.6375 0002237  54.0214 306.1189 14.35983039992337
IRIDIUM 42 [-]          
1 25077U 97077A   16294.37618917  .00000102  00000-0  29232-4 0  9990
2 25077  86.3936 122.2134 0002086  84.8123 275.3311 14.34508718987811
IRIDIUM 44 [-]          
1 25078U 97077B   16294.51076790  .00000138  00000-0  38976-4 0  9998
2 25078  86.3926 112.3213 0002096  43.6911 316.4452 14.38069067989186
IRIDIUM 45 [+]          
1 25104U 97082A   16294.33741981  .00000255  00000-0  84044-4 0  9992
2 25104  86.4000  27.5072 0002471  68.0065 292.1393 14.34225433985994
IRIDIUM 24 [-]          
1 25105U 97082B   16294.48866867  .00000134  00000-0  36255-4 0  9997
2 25105  86.3936 336.6953 0013487  60.3386 299.9154 14.39811988988369
IRIDIUM 47 [+]          
1 25106U 97082C   16294.22604392  .00000197  00000-0  63257-4 0  9994
2 25106  86.3986 355.6482 0002420  94.3165 265.8307 14.34220832985973
IRIDIUM 49 [+]          
1 25108U 97082E   16294.24567891  .00000193  00000-0  61816-4 0  9995
2 25108  86.3989 355.7362 0002352  94.0624 301.9560 14.34220840985980
IRIDIUM 52 [+]          
1 25169U 98010A   16294.47736044 -.00000006  00000-0 -91672-5 0  9996
2 25169  86.3931  90.5985 0001895  89.4973 270.6440 14.34215899977422
IRIDIUM 56 [+]          
1 25170U 98010B   16294.47098101 -.00000101  00000-0 -43188-4 0  9997
2 25170  86.3922  90.6992 0002095  82.8283 277.3151 14.34211482977402
IRIDIUM 54 [+]          
1 25171U 98010C   16294.50274108 -.00000004  00000-0 -86083-5 0  9999
2 25171  86.3932  90.6076 0001897  90.0763 270.0650 14.34215917977579
IRIDIUM 50 [+]          
1 25172U 98010D   16294.46470360 -.00000003  00000-0 -79656-5 0  9990
2 25172  86.3931  90.5810 0001949  92.2365 267.9054 14.34215152977400
IRIDIUM 53 [+]          
1 25173U 98010E   16294.48372591  .00000004  00000-0 -56164-5 0  9999
2 25173  86.3931  90.5787 0001899  89.8357 270.3056 14.34215532977414
IRIDIUM 51 [S]          
1 25262U 98018A   16294.42966117  .00000217  00000-0  70439-4 0  9998
2 25262  86.3978  59.2205 0002261  99.1093 261.0359 14.34217229976794
IRIDIUM 61 [+]          
1 25263U 98018B   16294.46135647  .00000159  00000-0  49813-4 0  9996
2 25263  86.3972  59.0556 0002131  96.2308 263.9130 14.34216919972507
IRIDIUM 55 [+]          
1 25272U 98019A   16294.32469919  .00000226  00000-0  73693-4 0  9992
2 25272  86.4001  27.2931 0002259  96.6602 263.4850 14.34218997971687
IRIDIUM 57 [-]          
1 25273U 98019B   16294.29806171  .00000110  00000-0  32093-4 0  9995
2 25273  86.4007  27.6012 0002195  96.4609 263.6837 14.34240320971684
IRIDIUM 58 [+]          
1 25274U 98019C   16294.30566390  .00000223  00000-0  72684-4 0  9999
2 25274  86.4008  27.7883 0002316  95.9934 264.1526 14.34218327971686
IRIDIUM 59 [+]          
1 25275U 98019D   16294.52130716  .00000231  00000-0  75570-4 0  9999
2 25275  86.4003  27.5644 0002266  99.9718 260.1733 14.34220196971710
IRIDIUM 60 [+]          
1 25276U 98019E   16294.31834847  .00000246  00000-0  80648-4 0  9991
2 25276  86.3999  27.2780 0002221  97.0405 263.1043 14.34218462971681
IRIDIUM 62 [+]          
1 25285U 98021A   16294.48899595  .00000011  00000-0 -30967-5 0  9994
2 25285  86.3946 324.1274 0002356  92.1332 268.0134 14.34222889970664
IRIDIUM 63 [-]          
1 25286U 98021B   16294.52481162  .00000105  00000-0  30197-4 0  9994
2 25286  86.3975 324.5064 0002300  98.3442  69.2160 14.34619666970682
